OBJECT_NAME,OBJECT_ID,EPOCH,MEAN_MOTION,ECCENTRICITY,INCLINATION,RA_OF_ASC_NODE,ARG_OF_PERICENTER,MEAN_ANOMALY,EPHEMERIS_TYPE,CLASSIFICATION_TYPE,NORAD_CAT_ID,ELEMENT_SET_NO,REV_AT_EPOCH,BSTAR,MEAN_MOTION_DOT,MEAN_MOTION_DDOT
JUPITER 3 (ECHOSTAR 24),2023-108A,2026-06-23T12:14:12.353280,1.00269415,.0001194,0.0217,7.9584,82.7820,269.2732,0,U,57479,999,1071,0,0,0
GALAXY 37 (G-37),2023-112A,2026-06-25T15:25:00.329088,1.00271487,.0002204,0.0129,39.7813,51.1738,287.0745,0,U,57493,999,1062,0,.58E-6,0
LUDI TANCE-4 01A,2023-120A,2026-06-24T12:46:39.657216,1.00268303,.00013671,15.1002,193.7787,22.2566,337.9252,0,U,57624,999,1062,0,-.158E-5,0
TJS-10,2023-169A,2026-06-25T17:00:51.341184,1.00272103,.0003897,2.5665,80.3985,103.7628,77.3463,0,U,58204,999,962,0,-.241E-5,0
ZHONGXING-6E,2023-172A,2026-06-25T09:43:36.400224,1.00268063,.0003114,0.0381,262.0890,187.2615,85.5627,0,U,58253,999,974,0,-.351E-5,0
YAOGAN-41,2023-197A,2026-06-25T14:53:48.378912,1.00266702,.0014402,3.1128,313.2780,192.9296,114.1006,0,U,58582,999,940,0,-.35E-5,0
OVZON-3,2024-003A,2026-06-25T18:00:54.050976,1.00274244,.0000165,0.0068,27.4778,54.0274,162.2908,0,U,58698,999,753,0,.62E-6,0
INSAT-3DS,2024-033A,2026-06-25T16:24:41.483808,1.00270803,.000144,0.0587,102.1091,341.2656,158.6947,0,U,58990,999,4715,0,-.145E-5,0
MERAH PUTIH 2,2024-035A,2026-06-25T16:51:38.719008,1.00270455,.0001462,0.0167,45.3210,55.2775,179.0900,0,U,58995,999,867,0,-.347E-5,0
TJS-11,2024-037A,2026-06-25T19:58:43.145184,1.00272762,.0003437,4.1876,327.1972,114.7948,244.3197,0,U,59020,999,866,0,-.352E-5,0
HULIANWAN GAOGUI-01 (HG-01),2024-040A,2026-06-24T23:34:38.637696,1.00270755,.00027705,0.0677,331.6577,73.6634,255.0386,0,U,59069,999,740,0,.165E-5,0
EUTELSAT 36D,2024-059A,2026-06-24T19:39:34.248960,1.00270360,.00005569,0.0231,16.9806,119.4534,107.2726,0,U,59346,999,822,0,0,0
PAKSAT-MM1,2024-104A,2026-06-25T12:46:49.721088,1.00270693,.0002838,0.0388,91.2975,342.6532,69.5789,0,U,59915,999,761,0,.164E-5,0
ASTRA 1P (SES-24),2024-115A,2026-06-24T21:45:00.000000,1.00274964,.00008284,0.0595,340.0652,24.8630,253.5862,0,U,60086,999,727,0,.129E-5,0
GOES 19,2024-119A,2026-06-25T12:14:31.519392,1.00271645,.0000479,0.0443,168.6712,333.6942,239.7212,0,U,60133,999,704,0,-.238E-5,0
ZHONGXING-3A,2024-122A,2026-06-25T04:03:38.815200,1.00271409,.0001382,0.0429,126.3697,353.1608,316.2695,0,U,60179,999,738,0,-.304E-5,0
TURKSAT 6A,2024-127A,2026-06-25T08:38:38.566176,1.00275873,.0001925,0.0588,220.3166,272.6888,312.1748,0,U,60233,999,709,0,.156E-5,0
HULIANWAN GAOGUI-02 (HG-02),2024-135A,2026-06-25T03:36:38.736576,1.00271607,.0007449,0.0431,357.3362,13.5264,109.6933,0,U,60327,999,758,0,-.164E-5,0
ZHONGXING-4A,2024-151A,2026-06-25T20:00:20.487744,1.00269849,.0000495,1.2919,270.7150,208.1187,213.4353,0,U,60606,999,684,0,-.35E-5,0
HULIANWAN GAOGUI-03 (HG-03),2024-181A,2026-06-25T08:48:40.628160,1.00273676,.0001415,0.0460,358.5440,93.2530,236.7381,0,U,61503,999,690,0,-.231E-5,0
DSN-3 (KIRAMEKI-3),2024-198A,2026-06-25T20:07:19.818048,1.00269711,.0000932,0.0171,330.2878,145.6516,243.8918,0,U,61733,999,600,0,-.24E-5,0
KOREASAT 6A,2024-206A,2026-06-25T14:13:38.607744,1.00268920,.0001065,0.0144,5.4472,76.9513,160.7668,0,U,61910,999,592,0,0,0
OPTUS-X (ADS-01),2024-212A,2026-06-25T19:43:38.666784,1.00272086,.0002235,0.0181,359.0504,129.9298,237.2675,0,U,62006,999,584,0,-.133E-5,0
GSAT-N2 (GSAT-20),2024-214A,2026-06-25T19:45:59.364864,1.00272063,.0002202,0.0571,103.7012,341.2848,193.4015,0,U,62028,999,598,0,-.9E-7,0
SXM-9,2024-234A,2026-06-23T08:51:54.877824,1.00271796,.00048956,0.0148,336.3648,341.8528,1.1406,0,U,62259,999,563,0,-.2E-5,0
TJS-12,2024-246A,2026-06-24T18:47:39.350112,1.00268446,.00021091,0.6533,299.9327,91.7487,309.6330,0,U,62374,999,564,0,-.223E-5,0
NUVIEW ALPHA,2024-252B,2026-06-24T08:49:41.361312,1.00270061,.0001427,0.0534,34.2511,41.0245,246.5697,0,U,62455,999,389,0,-.207E-5,0
AGILA,2024-252C,2026-06-24T09:56:48.529248,1.00271371,.0001526,0.0652,122.4429,345.1641,106.3124,0,U,62456,999,523,0,-.174E-5,0
NUVIEW BRAVO,2024-252D,2026-06-24T08:49:41.361312,1.00272657,.00023518,0.0745,147.1599,339.1991,195.4733,0,U,62457,999,386,0,-.207E-5,0
THURAYA-4,2025-001A,2026-06-25T04:15:21.084768,1.00274366,.00001518,0.0269,69.4729,343.0662,328.9298,0,U,62483,999,425,0,.149E-5,0
SHIJIAN-25 (SJ-25),2025-002A,2026-06-25T10:13:01.458048,1.00281333,.0051294,5.1328,61.1186,174.7504,318.1709,0,U,62485,999,544,0,-.344E-5,0
TJS-14,2025-017A,2026-06-25T19:31:50.991168,1.00268800,.0001129,0.7627,296.2277,295.5704,353.5234,0,U,62804,999,535,0,.126E-5,0
